CCSDS_OMM_VERS = 2.0
CREATION_DATE  = 
ORIGINATOR     = 

OBJECT_NAME    = SL-16 R/B
OBJECT_ID      = 1998-043G
CENTER_NAME    = EARTH
REF_FRAME      = TEME
TIME_SYSTEM    = UTC
MEAN_ELEMENT_THEORY = SGP/SGP4

EPOCH          = 2026-02-20T21:25:00.774912
MEAN_MOTION    = 14.26045528
ECCENTRICITY   = .00108618
INCLINATION    = 98.8226
RA_OF_ASC_NODE = 5.1398
ARG_OF_PERICENTER = 65.5215
MEAN_ANOMALY   = 294.7096

EPHEMERIS_TYPE = 0
CLASSIFICATION_TYPE = U
NORAD_CAT_ID   = 25400
ELEMENT_SET_NO = 999
REV_AT_EPOCH   = 43659
BSTAR          = .44198079E-4
MEAN_MOTION_DOT = .6E-6
MEAN_MOTION_DDOT = 0

CCSDS_OMM_VERS = 2.0
CREATION_DATE  = 
ORIGINATOR     = 

OBJECT_NAME    = SL-16 R/B
OBJECT_ID      = 1998-045B
CENTER_NAME    = EARTH
REF_FRAME      = TEME
TIME_SYSTEM    = UTC
MEAN_ELEMENT_THEORY = SGP/SGP4

EPOCH          = 2026-02-20T21:41:26.003616
MEAN_MOTION    = 14.16191073
ECCENTRICITY   = .00058644
INCLINATION    = 71.0097
RA_OF_ASC_NODE = 216.8725
ARG_OF_PERICENTER = 36.8598
MEAN_ANOMALY   = 323.2928

EPHEMERIS_TYPE = 0
CLASSIFICATION_TYPE = U
NORAD_CAT_ID   = 25407
ELEMENT_SET_NO = 999
REV_AT_EPOCH   = 42472
BSTAR          = .73066252E-4
MEAN_MOTION_DOT = .97E-6
MEAN_MOTION_DDOT = 0

CCSDS_OMM_VERS = 2.0
CREATION_DATE  = 
ORIGINATOR     = 

OBJECT_NAME    = ISS (ZARYA)
OBJECT_ID      = 1998-067A
CENTER_NAME    = EARTH
REF_FRAME      = TEME
TIME_SYSTEM    = UTC
MEAN_ELEMENT_THEORY = SGP/SGP4

EPOCH          = 2026-02-20T19:07:45.802560
MEAN_MOTION    = 15.48167199
ECCENTRICITY   = .00085713
INCLINATION    = 51.6323
RA_OF_ASC_NODE = 155.8543
ARG_OF_PERICENTER = 116.6604
MEAN_ANOMALY   = 243.5263

EPHEMERIS_TYPE = 0
CLASSIFICATION_TYPE = U
NORAD_CAT_ID   = 25544
ELEMENT_SET_NO = 999
REV_AT_EPOCH   = 55371
BSTAR          = .18779765E-3
MEAN_MOTION_DOT = .9624E-4
MEAN_MOTION_DDOT = 0

CCSDS_OMM_VERS = 2.0
CREATION_DATE  = 
ORIGINATOR     = 

OBJECT_NAME    = CZ-4B R/B
OBJECT_ID      = 1999-025C
CENTER_NAME    = EARTH
REF_FRAME      = TEME
TIME_SYSTEM    = UTC
MEAN_ELEMENT_THEORY = SGP/SGP4

EPOCH          = 2026-02-20T17:50:31.545024
MEAN_MOTION    = 14.18261748
ECCENTRICITY   = .00376691
INCLINATION    = 98.6663
RA_OF_ASC_NODE = 96.4235
ARG_OF_PERICENTER = 35.1536
MEAN_ANOMALY   = 75.0473

EPHEMERIS_TYPE = 0
CLASSIFICATION_TYPE = U
NORAD_CAT_ID   = 25732
ELEMENT_SET_NO = 999
REV_AT_EPOCH   = 38576
BSTAR          = .40843233E-4
MEAN_MOTION_DOT = .42E-6
MEAN_MOTION_DDOT = 0

CCSDS_OMM_VERS = 2.0
CREATION_DATE  = 
ORIGINATOR     = 

OBJECT_NAME    = OKEAN-O
OBJECT_ID      = 1999-039A
CENTER_NAME    = EARTH
REF_FRAME      = TEME
TIME_SYSTEM    = UTC
MEAN_ELEMENT_THEORY = SGP/SGP4

EPOCH          = 2026-02-20T18:04:58.487808
MEAN_MOTION    = 14.80305715
ECCENTRICITY   = .00016667
INCLINATION    = 97.9482
RA_OF_ASC_NODE = 111.8141
ARG_OF_PERICENTER = 78.3731
MEAN_ANOMALY   = 281.7668

EPHEMERIS_TYPE = 0
CLASSIFICATION_TYPE = U
NORAD_CAT_ID   = 25860
ELEMENT_SET_NO = 999
REV_AT_EPOCH   = 43188
BSTAR          = .83136637E-4
MEAN_MOTION_DOT = .581E-5
MEAN_MOTION_DDOT = 0

CCSDS_OMM_VERS = 2.0
CREATION_DATE  = 
ORIGINATOR     = 

OBJECT_NAME    = SL-16 R/B
OBJECT_ID      = 1999-039B
CENTER_NAME    = EARTH
REF_FRAME      = TEME
TIME_SYSTEM    = UTC
MEAN_ELEMENT_THEORY = SGP/SGP4

EPOCH          = 2026-02-20T17:59:00.032352
MEAN_MOTION    = 14.81705672
ECCENTRICITY   = .00137843
INCLINATION    = 98.0005
RA_OF_ASC_NODE = 110.8679
ARG_OF_PERICENTER = 316.1146
MEAN_ANOMALY   = 43.8970

EPHEMERIS_TYPE = 0
CLASSIFICATION_TYPE = U
NORAD_CAT_ID   = 25861
ELEMENT_SET_NO = 999
REV_AT_EPOCH   = 43435
BSTAR          = .68148413E-4
MEAN_MOTION_DOT = .483E-5
MEAN_MOTION_DDOT = 0

CCSDS_OMM_VERS = 2.0
CREATION_DATE  = 
ORIGINATOR     = 

OBJECT_NAME    = DELTA 2 R/B
OBJECT_ID      = 1999-041E
CENTER_NAME    = EARTH
REF_FRAME      = TEME
TIME_SYSTEM    = UTC
MEAN_ELEMENT_THEORY = SGP/SGP4

EPOCH          = 2026-02-20T07:26:03.405696
MEAN_MOTION    = 14.11770959
ECCENTRICITY   = .0502219
INCLINATION    = 51.7662
RA_OF_ASC_NODE = 10.6882
ARG_OF_PERICENTER = 297.1100
MEAN_ANOMALY   = 57.9452

EPHEMERIS_TYPE = 0
CLASSIFICATION_TYPE = U
NORAD_CAT_ID   = 25876
ELEMENT_SET_NO = 999
REV_AT_EPOCH   = 36057
BSTAR          = .26091E-3
MEAN_MOTION_DOT = .1387E-4
MEAN_MOTION_DDOT = 0

CCSDS_OMM_VERS = 2.0
CREATION_DATE  = 
ORIGINATOR     = 

OBJECT_NAME    = HELIOS 1B
OBJECT_ID      = 1999-064A
CENTER_NAME    = EARTH
REF_FRAME      = TEME
TIME_SYSTEM    = UTC
MEAN_ELEMENT_THEORY = SGP/SGP4

EPOCH          = 2026-02-20T16:43:32.312064
MEAN_MOTION    = 14.87622051
ECCENTRICITY   = .00023615
INCLINATION    = 98.1714
RA_OF_ASC_NODE = 313.4396
ARG_OF_PERICENTER = 97.8859
MEAN_ANOMALY   = 262.2625

EPHEMERIS_TYPE = 0
CLASSIFICATION_TYPE = U
NORAD_CAT_ID   = 25977
ELEMENT_SET_NO = 999
REV_AT_EPOCH   = 68273
BSTAR          = .1825126E-3
MEAN_MOTION_DOT = .1601E-4
MEAN_MOTION_DDOT = 0

CCSDS_OMM_VERS = 2.0
CREATION_DATE  = 
ORIGINATOR     = 

OBJECT_NAME    = TERRA
OBJECT_ID      = 1999-068A
CENTER_NAME    = EARTH
REF_FRAME      = TEME
TIME_SYSTEM    = UTC
MEAN_ELEMENT_THEORY = SGP/SGP4

EPOCH          = 2026-02-20T22:44:47.336640
MEAN_MOTION    = 14.60995083
ECCENTRICITY   = .00015025
INCLINATION    = 97.9630
RA_OF_ASC_NODE = 106.0190
ARG_OF_PERICENTER = 199.2000
MEAN_ANOMALY   = 284.1636

EPHEMERIS_TYPE = 0
CLASSIFICATION_TYPE = U
NORAD_CAT_ID   = 25994
ELEMENT_SET_NO = 999
REV_AT_EPOCH   = 39263
BSTAR          = .8432331E-4
MEAN_MOTION_DOT = .369E-5
MEAN_MOTION_DDOT = 0

CCSDS_OMM_VERS = 2.0
CREATION_DATE  = 
ORIGINATOR     = 

OBJECT_NAME    = SL-16 R/B
OBJECT_ID      = 2000-006B
CENTER_NAME    = EARTH
REF_FRAME      = TEME
TIME_SYSTEM    = UTC
MEAN_ELEMENT_THEORY = SGP/SGP4

EPOCH          = 2026-02-20T15:10:22.878336
MEAN_MOTION    = 14.15818419
ECCENTRICITY   = .00178502
INCLINATION    = 71.0022
RA_OF_ASC_NODE = 133.7044
ARG_OF_PERICENTER = 213.8773
MEAN_ANOMALY   = 146.1211

EPHEMERIS_TYPE = 0
CLASSIFICATION_TYPE = U
NORAD_CAT_ID   = 26070
ELEMENT_SET_NO = 999
REV_AT_EPOCH   = 34614
BSTAR          = .4395242E-4
MEAN_MOTION_DOT = .39E-6
MEAN_MOTION_DDOT = 0

CCSDS_OMM_VERS = 2.0
CREATION_DATE  = 
ORIGINATOR     = 

OBJECT_NAME    = TITAN 4B R/B
OBJECT_ID      = 2000-047B
CENTER_NAME    = EARTH
REF_FRAME      = TEME
TIME_SYSTEM    = UTC
MEAN_ELEMENT_THEORY = SGP/SGP4

EPOCH          = 2026-02-20T20:47:04.351776
MEAN_MOTION    = 15.09400181
ECCENTRICITY   = .00375586
INCLINATION    = 67.9877
RA_OF_ASC_NODE = 87.8136
ARG_OF_PERICENTER = 55.7184
MEAN_ANOMALY   = 304.7512

EPHEMERIS_TYPE = 0
CLASSIFICATION_TYPE = U
NORAD_CAT_ID   = 26474
ELEMENT_SET_NO = 999
REV_AT_EPOCH   = 39037
BSTAR          = .18481612E-3
MEAN_MOTION_DOT = .2872E-4
MEAN_MOTION_DDOT = 0

CCSDS_OMM_VERS = 2.0
CREATION_DATE  = 
ORIGINATOR     = 

OBJECT_NAME    = ENVISAT
OBJECT_ID      = 2002-009A
CENTER_NAME    = EARTH
REF_FRAME      = TEME
TIME_SYSTEM    = UTC
MEAN_ELEMENT_THEORY = SGP/SGP4

EPOCH          = 2026-02-20T20:30:27.762336
MEAN_MOTION    = 14.39030063
ECCENTRICITY   = .0001347
INCLINATION    = 98.3700
RA_OF_ASC_NODE = 5.8558
ARG_OF_PERICENTER = 87.1886
MEAN_ANOMALY   = 331.5056

EPHEMERIS_TYPE = 0
CLASSIFICATION_TYPE = U
NORAD_CAT_ID   = 27386
ELEMENT_SET_NO = 999
REV_AT_EPOCH   = 25675
BSTAR          = .48956813E-4
MEAN_MOTION_DOT = .108E-5
MEAN_MOTION_DDOT = 0

