SL-16 R/B               
1 25400U 98043G   26051.89237008  .00000060  00000+0  44198-4 0  9991
2 25400  98.8226   5.1398 0010861  65.5215 294.7096 14.26045528436595
SL-16 R/B               
1 25407U 98045B   26051.90377319  .00000097  00000+0  73066-4 0  9998
2 25407  71.0097 216.8725 0005864  36.8598 323.2928 14.16191073424728
ISS (ZARYA)             
1 25544U 98067A   26051.79705790  .00009624  00000+0  18780-3 0  9995
2 25544  51.6323 155.8543 0008571 116.6604 243.5263 15.48167199553715
CZ-4B R/B               
1 25732U 99025C   26051.74342066  .00000042  00000+0  40843-4 0  9998
2 25732  98.6663  96.4235 0037669  35.1536  75.0473 14.18261748385769
OKEAN-O                 
1 25860U 99039A   26051.75345472  .00000581  00000+0  83137-4 0  9991
2 25860  97.9482 111.8141 0001666  78.3731 281.7668 14.80305715431883
SL-16 R/B               
1 25861U 99039B   26051.74930593  .00000483  00000+0  68148-4 0  9991
2 25861  98.0005 110.8679 0013784 316.1146  43.8970 14.81705672434354
DELTA 2 R/B             
1 25876U 99041E   26051.30976164  .00001387  00000+0  26091-3 0  9990
2 25876  51.7662  10.6882 0502219 297.1100  57.9452 14.11770959360578
HELIOS 1B               
1 25977U 99064A   26051.69690176  .00001601  00000+0  18251-3 0  9993
2 25977  98.1714 313.4396 0002361  97.8859 262.2625 14.87622051682736
TERRA                   
1 25994U 99068A   26051.94777010  .00000369  00000+0  84323-4 0  9991
2 25994  97.9630 106.0190 0001502 199.2000 284.1636 14.60995083392639
SL-16 R/B               
1 26070U 00006B   26051.63220924  .00000039  00000+0  43952-4 0  9991
2 26070  71.0022 133.7044 0017850 213.8773 146.1211 14.15818419346149
TITAN 4B R/B            
1 26474U 00047B   26051.86602259  .00002872  00000+0  18482-3 0  9990
2 26474  67.9877  87.8136 0037558  55.7184 304.7512 15.09400181390373
ENVISAT                 
1 27386U 02009A   26051.85448799  .00000108  00000+0  48957-4 0  9990
2 27386  98.3700   5.8558 0001347  87.1886 331.5056 14.39030063256756
